SXM-9                   
1 62259U 24234A   26157.90091937 -.00000191  00000+0  00000+0 0  9998
2 62259   0.0152 324.5764 0004751 351.8601 178.0562  1.00271331  5479
TJS-12                  
1 62374U 24246A   26157.63447317 -.00000217  00000+0  00000+0 0  9995
2 62374   0.6945 298.1018 0002296  88.5231 243.3913  1.00273183  5457
NUVIEW ALPHA            
1 62455U 24252B   26157.90135272 -.00000202  00000+0  00000+0 0  9990
2 62455   0.0541  30.3021 0000979  29.3500  77.0710  1.00273422  3722
AGILA                   
1 62456U 24252C   26157.87653740 -.00000168  00000+0  00000+0 0  9993
2 62456   0.0542 135.3415 0000952 320.2639 267.3877  1.00272052  5058
NUVIEW BRAVO            
1 62457U 24252D   26157.90135272 -.00000201  00000+0  00000+0 0  9991
2 62457   0.0680 146.6036 0001748 324.2939  25.7947  1.00269691  3694
THURAYA-4               
1 62483U 25001A   26157.96383059  .00000153  00000+0  00000+0 0  9992
2 62483   0.0214  58.5470 0000090   9.8965 218.2223  1.00273096  4076
SHIJIAN-25 (SJ-25)      
1 62485U 25002A   26157.73433983 -.00000336  00000+0  00000+0 0  9996
2 62485   5.0875  61.2261 0051760 172.9258  52.6784  1.00277355  5257
TJS-14                  
1 62804U 25017A   26157.92148984  .00000129  00000+0  00000+0 0  9991
2 62804   0.8067 294.8595 0000645 276.5616  34.0129  1.00270765  5162
SPAINSAT NG I           
1 62852U 25021A   26157.92356985  .00000165  00000+0  00000+0 0  9991
2 62852   0.0164 337.0382 0000068 126.2365 153.5598  1.00270617  3880
QZS-6 (MICHIBIKI-6)     
1 62876U 25023A   26157.97770390 -.00000220  00000+0  00000+0 0  9997
2 62876   0.0262  45.4258 0002049  37.8805 254.5455  1.00274475  4841
ZHONGXING-10R           
1 63075U 25036A   26157.93967691 -.00000338  00000+0  00000+0 0  9991
2 63075   0.0465 251.5699 0003347 249.7319 202.8741  1.00270733  4851
TJS-15                  
1 63157U 25045A   26157.74059829 -.00000251  00000+0  00000+0 0  9990
2 63157   0.2779  85.3886 0005451 299.0666 231.6960  1.00268742  4652
TIANLIAN 2-04           
1 63361U 25062A   26157.98457743 -.00000123  00000+0  00000+0 0  9997
2 63361   4.4019 274.5852 0031438  10.6453  44.6735  1.00270540  4507
TJS-16                  
1 63397U 25064A   26157.78158219 -.00000091  00000+0  00000+0 0  9996
2 63397   1.0705  81.5166 0003657 293.1533 322.4972  1.00272320  4287
TJS-17                  
1 63524U 25073A   26157.78177983 -.00000056  00000+0  00000+0 0  9998
2 63524   1.0363  82.7836 0002430 301.0573 317.3124  1.00272365  4187
TIANLIAN 2-05           
1 63662U 25084A   26156.56725744  .00000136  00000+0  00000+0 0  9990
2 63662   4.4814 279.9668 0003588 145.2192  53.4368  1.00272832  4267
TJS-19                  
1 63924U 25097A   26157.78188081 -.00000265  00000+0  00000+0 0  9991
2 63924   3.3046 317.2592 0001981 233.5546 127.1483  1.00270006  4037
CHINASAT 3B             
1 64062U 25106A   26156.61155694 -.00000032  00000+0  00000+0 0  9993
2 64062   0.0295  97.2553 0002886  13.4241 170.8480  1.00272768  3943
SXM-10                  
1 64290U 25122A   26157.68096084 -.00000003  00000+0  00000+0 0  9997
2 64290   0.0181  18.7685 0001756 357.1342   8.1731  1.00271371  3579
COSMOS 2589             
1 64467U 25131A   26157.74195742 -.00000277  00000+0  00000+0 0  9994
2 64467   0.0451  69.4424 0001278  80.1765 110.6210  1.00270705  3458
CHINASAT 9C             
1 64470U 25132A   26157.93612355 -.00000234  00000+0  00000+0 0  9997
2 64470   0.0302 260.9940 0002898 175.6023 247.9675  1.00273053  4048
MTG-S1                  
1 64723U 25143A   26157.91715649 -.00000018  00000+0  00000+0 0  9998
2 64723   0.6122 336.6515 0001098  32.9476 212.4297  1.00271636  3313
DROR 1                  
1 64784U 25148A   26157.91706983 -.00000020  00000+0  00000+0 0  9994
2 64784   0.0098 343.5706 0002926  47.8039 190.0927  1.00271732  3190
SHIYAN-29               
1 65486U 25196A   26157.08094559 -.00000259  00000+0  00000+0 0  9998
2 65486  28.8092  18.6769 0010791 170.7480 188.4746  1.00257909  2768
NUSANTARA LIMA (NUSANT*)
1 65588U 25205A   26157.94019691 -.00000344  00000+0  00000+0 0  9996
2 65588   0.0458 142.0659 0000458 310.3589 254.2497  1.00270987  2610
TJS-20                  
1 66142U 25238A   26157.93014353  .00000035  00000+0  00000+0 0  9994
2 66142   5.4933 299.5902 0004787 155.9225 197.0629  1.00272520  2225
CMS-03 (GSAT-7R)        
1 66311U 25249B   26157.93248353 -.00000063  00000+0  00000+0 0  9995
2 66311   0.0288 260.5634 0001876 174.0625 230.4128  1.00271510  2245
VIASAT-3 F2             
1 66454U 25261A   26157.90221939 -.00000220  00000+0  00000+0 0  9990
2 66454   0.0434 144.8312 0000187 306.5822  49.7040  1.00271777  2696
SHIJIAN-28 (SJ-28)      
1 66549U 25277A   26157.79839140 -.00000348  00000+0  00000+0 0  9999
2 66549   4.5661 272.2987 0000430 358.4252  28.8048  1.00269171  2051
TJS-22                  
1 66990U 25290A   26157.90320286  .00000007  00000+0  00000+0 0  9994
2 66990   1.5531 286.4317 0002000 333.3997  27.0792  1.00271912  1929
TJS-23                  
1 67226U 25306A   26157.63091097  .00000027  00000+0  00000+0 0  9992
2 67226   5.6115 297.5457 0005037 164.2302 195.8754  1.00272906  1787
FENGYUN 4C              
1 67246U 25312A   26157.01729402 -.00000310  00000+0  00000+0 0  9997
2 67246   0.0402 145.4812 0000482  20.6439 227.5437  1.00272480  1663
