OBJECT_NAME,OBJECT_ID,EPOCH,MEAN_MOTION,ECCENTRICITY,INCLINATION,RA_OF_ASC_NODE,ARG_OF_PERICENTER,MEAN_ANOMALY,EPHEMERIS_TYPE,CLASSIFICATION_TYPE,NORAD_CAT_ID,ELEMENT_SET_NO,REV_AT_EPOCH,BSTAR,MEAN_MOTION_DOT,MEAN_MOTION_DDOT
SXM-9,2024-234A,2026-06-06T21:37:19.433568,1.00271331,.00047519,0.0152,324.5764,351.8601,178.0562,0,U,62259,999,547,0,-.191E-5,0
TJS-12,2024-246A,2026-06-06T15:13:38.481888,1.00273183,.00022964,0.6945,298.1018,88.5231,243.3913,0,U,62374,999,545,0,-.217E-5,0
NUVIEW ALPHA,2024-252B,2026-06-06T21:37:56.875008,1.00273422,.00009798,0.0541,30.3021,29.3500,77.0710,0,U,62455,999,372,0,-.202E-5,0
AGILA,2024-252C,2026-06-06T21:02:12.831360,1.00272052,.00009527,0.0542,135.3415,320.2639,267.3877,0,U,62456,999,505,0,-.168E-5,0
NUVIEW BRAVO,2024-252D,2026-06-06T21:37:56.875008,1.00269691,.00017488,0.0680,146.6036,324.2939,25.7947,0,U,62457,999,369,0,-.201E-5,0
THURAYA-4,2025-001A,2026-06-06T23:07:54.962976,1.00273096,.00000905,0.0214,58.5470,9.8965,218.2223,0,U,62483,999,407,0,.153E-5,0
SHIJIAN-25 (SJ-25),2025-002A,2026-06-06T17:37:26.961312,1.00277355,.005176,5.0875,61.2261,172.9258,52.6784,0,U,62485,999,525,0,-.336E-5,0
TJS-14,2025-017A,2026-06-06T22:06:56.722176,1.00270765,.00006459,0.8067,294.8595,276.5616,34.0129,0,U,62804,999,516,0,.129E-5,0
SPAINSAT NG I,2025-021A,2026-06-06T22:09:56.435040,1.00270617,.00000681,0.0164,337.0382,126.2365,153.5598,0,U,62852,999,388,0,.165E-5,0
QZS-6 (MICHIBIKI-6),2025-023A,2026-06-06T23:27:53.616960,1.00274475,.00020497,0.0262,45.4258,37.8805,254.5455,0,U,62876,999,484,0,-.22E-5,0
ZHONGXING-10R,2025-036A,2026-06-06T22:33:08.085024,1.00270733,.00033471,0.0465,251.5699,249.7319,202.8741,0,U,63075,999,485,0,-.338E-5,0
TJS-15,2025-045A,2026-06-06T17:46:27.692256,1.00268742,.0005451,0.2779,85.3886,299.0666,231.6960,0,U,63157,999,465,0,-.251E-5,0
TIANLIAN 2-04,2025-062A,2026-06-06T23:37:47.489952,1.00270540,.00314388,4.4019,274.5852,10.6453,44.6735,0,U,63361,999,450,0,-.123E-5,0
TJS-16,2025-064A,2026-06-06T18:45:28.701216,1.00272320,.0003657,1.0705,81.5166,293.1533,322.4972,0,U,63397,999,428,0,-.91E-6,0
TJS-17,2025-073A,2026-06-06T18:45:45.777312,1.00272365,.000243,1.0363,82.7836,301.0573,317.3124,0,U,63524,999,418,0,-.56E-6,0
TIANLIAN 2-05,2025-084A,2026-06-05T13:36:51.042816,1.00272832,.00035885,4.4814,279.9668,145.2192,53.4368,0,U,63662,999,426,0,.136E-5,0
TJS-19,2025-097A,2026-06-06T18:45:54.501984,1.00270006,.0001981,3.3046,317.2592,233.5546,127.1483,0,U,63924,999,403,0,-.265E-5,0
CHINASAT 3B,2025-106A,2026-06-05T14:40:38.519616,1.00272768,.0002886,0.0295,97.2553,13.4241,170.8480,0,U,64062,999,394,0,-.32E-6,0
SXM-10,2025-122A,2026-06-06T16:20:35.016576,1.00271371,.00017563,0.0181,18.7685,357.1342,8.1731,0,U,64290,999,357,0,-.3E-7,0
COSMOS 2589,2025-131A,2026-06-06T17:48:25.121088,1.00270705,.0001278,0.0451,69.4424,80.1765,110.6210,0,U,64467,999,345,0,-.277E-5,0
CHINASAT 9C,2025-132A,2026-06-06T22:28:01.074720,1.00273053,.00028986,0.0302,260.9940,175.6023,247.9675,0,U,64470,999,404,0,-.234E-5,0
MTG-S1,2025-143A,2026-06-06T22:00:42.320736,1.00271636,.00010984,0.6122,336.6515,32.9476,212.4297,0,U,64723,999,331,0,-.18E-6,0
DROR 1,2025-148A,2026-06-06T22:00:34.833312,1.00271732,.00029267,0.0098,343.5706,47.8039,190.0927,0,U,64784,999,319,0,-.2E-6,0
SHIYAN-29,2025-196A,2026-06-06T01:56:33.698976,1.00257909,.0010791,28.8092,18.6769,170.7480,188.4746,0,U,65486,999,276,0,-.259E-5,0
NUSANTARA LIMA (NUSANTARA 5),2025-205A,2026-06-06T22:33:53.013024,1.00270987,.00004588,0.0458,142.0659,310.3589,254.2497,0,U,65588,999,261,0,-.344E-5,0
TJS-20,2025-238A,2026-06-06T22:19:24.400992,1.00272520,.00047876,5.4933,299.5902,155.9225,197.0629,0,U,66142,999,222,0,.35E-6,0
CMS-03 (GSAT-7R),2025-249B,2026-06-06T22:22:46.576992,1.00271510,.00018763,0.0288,260.5634,174.0625,230.4128,0,U,66311,999,224,0,-.63E-6,0
VIASAT-3 F2,2025-261A,2026-06-06T21:39:11.755296,1.00271777,.00001875,0.0434,144.8312,306.5822,49.7040,0,U,66454,999,269,0,-.22E-5,0
SHIJIAN-28 (SJ-28),2025-277A,2026-06-06T19:09:41.016960,1.00269171,.00004307,4.5661,272.2987,358.4252,28.8048,0,U,66549,999,205,0,-.348E-5,0
TJS-22,2025-290A,2026-06-06T21:40:36.727104,1.00271912,.00020001,1.5531,286.4317,333.3997,27.0792,0,U,66990,999,192,0,.7E-7,0
TJS-23,2025-306A,2026-06-06T15:08:30.707808,1.00272906,.0005037,5.6115,297.5457,164.2302,195.8754,0,U,67226,999,178,0,.27E-6,0
FENGYUN 4C,2025-312A,2026-06-06T00:24:54.203328,1.00272480,.00004824,0.0402,145.4812,20.6439,227.5437,0,U,67246,999,166,0,-.31E-5,0
